GALAXY 25 (G-25)        
1 24812U 97026A   22116.85604904 -.00000015  00000+0  00000+0 0  9994
2 24812   3.5642  84.1378 0005458 341.1601 163.8031  1.00271991 91213
INTELSAT 5 (IS-5)       
1 24916U 97046A   22116.66117611 -.00000008  00000+0  00000+0 0  9996
2 24916   7.1200  61.4092 0002265  38.7005 169.4164  1.00154734 90458
GALAXY 11 (G-11)        
1 26038U 99071A   22117.11110604 -.00000174  00000+0  00000+0 0  9993
2 26038   2.8699  88.4414 0000302  26.7622  46.7794  1.00271808 81917
INTELSAT 9 (IS-9)       
1 26451U 00043A   22117.13505065 -.00000297  00000+0  00000+0 0  9990
2 26451   7.1078  61.5840 0002782 339.4304 172.7077  1.00272269 79682
INTELSAT 1R (IS-1R)     
1 26608U 00072A   22116.80085407 -.00000149  00000+0  00000+0 0  9998
2 26608   4.3424  80.5735 0000604 340.0233 239.6160  1.00272517 26150
INTELSAT 10 (IS-10)     
1 26766U 01019A   22116.69007619  .00000023  00000+0  00000+0 0  9991
2 26766   5.4588  73.7938 0004329 326.1459 240.9290  1.00271320 30458
INTELSAT 901 (IS-901)   
1 26824U 01024A   22116.26169837 -.00000218  00000+0  00000+0 0  9993
2 26824   0.0218 112.2328 0000939 302.1530 226.5760  1.00269361  7800
INTELSAT 902 (IS-902)   
1 26900U 01039A   22116.85952359 -.00000294  00000+0  00000+0 0  9992
2 26900   2.2767  89.5184 0003237 311.1912  73.4598  1.00273161 75538
INTELSAT 904 (IS-904)   
1 27380U 02007A   22116.97895347 -.00000225  00000+0  00000+0 0  9991
2 27380   3.1116  86.4493 0002975 309.5012 141.9202  1.00272235 73923
DIRECTV 5 (TEMPO 1)     
1 27426U 02023A   22116.63088400 -.00000070  00000+0  00000+0 0  9995
2 27426   0.9989  93.6763 0003325 308.4643 289.4670  1.00272267 72959
INTELSAT 905 (IS-905)   
1 27438U 02027A   22117.14146434 -.00000196  00000+0  00000+0 0  9990
2 27438   2.9332  87.1959 0002633 304.1173 210.2269  1.00272143 72806
GALAXY 3C (G-3C)        
1 27445U 02030A   22116.53529576 -.00000165  00000+0  00000+0 0  9992
2 27445   0.0423  51.1592 0001754 276.6318 344.3529  1.00268415 31333
INTELSAT 906 (IS-906)   
1 27513U 02041A   22116.85604904  .00000002  00000+0  00000+0 0  9993
2 27513   1.9443  91.0299 0004179 314.0756 182.0417  1.00272007 71862
GALAXY 12 (G-12)        
1 27715U 03013B   22117.21641575  .00000047  00000+0  00000+0 0  9992
2 27715   3.1453  86.0535 0002232 327.1127 110.9131  1.00271172 69843
GALAXY 23 (G-23)        
1 27854U 03034A   22116.67360279 -.00000002  00000+0  00000+0 0  9999
2 27854   0.0095 230.6198 0002933 167.9020 297.6327  1.00272615 68579
GALAXY 13 (HORIZONS-1)  
1 27954U 03044A   22116.67246896  .00000034  00000+0  00000+0 0  9993
2 27954   0.0136 264.9068 0000614 257.0389 167.7789  1.00271027 31402
INTELSAT 10-02          
1 28358U 04022A   22116.77827243 -.00000025  00000+0  00000+0 0  9992
2 28358   0.0150 231.7083 0000719 189.9425  72.2942  1.00270749 65381
XM-3 (RHYTHM)           
1 28626U 05008A   22117.11120153 -.00000218  00000+0  00000+0 0  9994
2 28626   0.0164 116.1097 0000753  73.2365 340.6406  1.00266954 62906
DIRECTV 8               
1 28659U 05019A   22116.67403889 -.00000013  00000+0  00000+0 0  9995
2 28659   0.0172 254.4297 0003045 151.9223 291.9003  1.00272503 61900
GALAXY 28 (G-28)        
1 28702U 05022A   22116.90118750 -.00000199  00000+0  00000+0 0  9999
2 28702   0.0202 302.0323 0002277 109.4331  38.8199  1.00269717 36816
GALAXY 14 (G-14)        
1 28790U 05030A   22116.84786463  .00000142  00000+0  00000+0 0  9997
2 28790   1.1339  92.6202 0001832 303.0690 157.2553  1.00274036 61144
GALAXY 15 (G-15)        
1 28884U 05041A   22116.67124792  .00000064  00000+0  00000+0 0  9998
2 28884   0.0356  87.2568 0001926 308.0231 288.0074  1.00271419 60445
SPACEWAY 2              
1 28903U 05046B   22116.67002685  .00000091  00000+0  00000+0 0  9991
2 28903   1.7938  88.2049 0000011 340.7281 248.0260  1.00272162 36170
GALAXY 16 (G-16)        
1 29236U 06023A   22116.60622868 -.00000142  00000+0  00000+0 0  9999
2 29236   0.0271 267.5014 0002960 144.2653 282.0496  1.00273940 57808
DIRECTV 9S              
1 29494U 06043A   22116.90674476 -.00000127  00000+0  00000+0 0  9995
2 29494   0.0408  76.6526 0003043 330.3460  33.0957  1.00271334 36213
XM-4 (BLUES)            
1 29520U 06049A   22116.96334144 -.00000130  00000+0  00000+0 0  9996
2 29520   0.0345 292.2357 0003928  21.1164 140.8223  1.00571163 56835
GALAXY 17 (G-17)        
1 31307U 07016B   22117.07965983 -.00000188  00000+0  00000+0 0  9994
2 31307   0.0307  34.3425 0003186   9.6205 108.7516  1.00269534 54914
DIRECTV 10              
1 31862U 07032A   22116.96430083 -.00000117  00000+0  00000+0 0  9995
2 31862   0.0146  88.7715 0000218  93.0992 277.4233  1.00268599 54245
SPACEWAY 3              
1 32018U 07036A   22116.90118750 -.00000166  00000+0  00000+0 0  9995
2 32018   0.0966  78.2467 0000312  49.3002 316.7984  1.00271492 53962
INTELSAT 11 (IS-11)     
1 32253U 07044B   22116.84146751 -.00000283  00000+0  00000+0 0  9990
2 32253   0.0196 250.6672 0001921 162.9323  61.1571  1.00268468 53330
HORIZONS-2              
1 32388U 07063B   22116.85815638 -.00000197  00000+0  00000+0 0  9992
2 32388   0.0133 264.7391 0002731 132.1218 211.7540  1.00269606 52654
DIRECTV 11              
1 32729U 08013A   22116.96499859 -.00000140  00000+0  00000+0 0  9990
2 32729   0.0110 107.2371 0000261 280.5942  75.3220  1.00269304 51771
GALAXY 18 (G-18)        
1 32951U 08024A   22117.22284872  .00000012  00000+0  00000+0 0  9993
2 32951   0.0180 259.8457 0003148 149.6327 122.9207  1.00272429 50925
INTELSAT 25 (IS-25)     
1 33153U 08034A   22116.88938104 -.00000238  00000+0  00000+0 0  9995
2 33153   0.0160 247.0876 0003463 163.3275  93.1065  1.00270909 50536
GALAXY 19 (G-19)        
1 33376U 08045A   22116.82187365 -.00000153  00000+0  00000+0 0  9999
2 33376   0.0209 245.3340 0002903 155.0282  13.3004  1.00269142 49732
FM-5                    
1 35493U 09034A   22116.90674476 -.00000214  00000+0  00000+0 0  9991
2 35493   0.0142 288.5748 0000428 126.4218  40.1567  1.00270517 31485
INTELSAT 14 (IS-14)     
1 36097U 09064A   22116.84702178 -.00000288  00000+0  00000+0 0  9990
2 36097   0.0125 267.0382 0002740 142.7767  64.9295  1.00270654 45537
INTELSAT 15 (IS-15)     
1 36106U 09067A   22116.85824361 -.00000199  00000+0  00000+0 0  9995
2 36106   0.0107 268.3305 0002296 138.1334 202.4754  1.00269142 26068
DIRECTV 12              
1 36131U 09075A   22116.60553094 -.00000118  00000+0  00000+0 0  9998
2 36131   0.0112 198.6907 0000493 324.1104 167.0398  1.00271840 31394
INTELSAT 16 (IS-16)     
1 36397U 10006A   22116.89511262 -.00000258  00000+0  00000+0 0  9995
2 36397   0.0110 259.2172 0001838 149.9103  51.7734  1.00268127 44492
XM-5                    
1 37185U 10053A   22116.67482385 -.00000037  00000+0  00000+0 0  9997
2 37185   0.0119 223.8203 0000827 309.8139 168.7429  1.00268539 42318
INTELSAT 17 (IS-17)     
1 37238U 10065B   22116.85604904 -.00000016  00000+0  00000+0 0  9999
2 37238   0.0165 204.0535 0002645 200.9636 183.9850  1.00273127 38074
INTELSAT NEW DAWN       
1 37392U 11016A   22116.84777743  .00000141  00000+0  00000+0 0  9996
2 37392   0.0198 246.4385 0000763 204.9672 101.3931  1.00272715 38129
INTELSAT 18 (IS-18)     
1 37834U 11056A   22116.80538941  .00000038  00000+0  00000+0 0  9997
2 37834   0.0311 354.8879 0001859  44.7917 285.0357  1.00270025 38672
INTELSAT 22 (IS-22)     
1 38098U 12011A   22116.85604904 -.00000073  00000+0  00000+0 0  9990
2 38098   0.0116 264.4684 0002636 130.6357 199.9947  1.00272643 36657
INTELSAT 19 (IS-19)     
1 38356U 12030A   22116.87437896 -.00000071  00000+0  00000+0 0  9992
2 38356   0.0484  86.8043 0003315 320.2593 288.5517  1.00271644 35276
INTELSAT 20 (IS-20)     
1 38740U 12043A   22116.99842242 -.00000039  00000+0  00000+0 0  9995
2 38740   0.0111 187.9567 0001237  12.7880  82.1614  1.00272402 35669
INTELSAT 21 (IS-21)     
1 38749U 12045A   22117.14081781 -.00000298  00000+0  00000+0 0  9994
2 38749   0.0169 266.2476 0002029 136.3268 165.2115  1.00268999 35478
INTELSAT 23 (IS-23)     
1 38867U 12057A   22116.97424369 -.00000299  00000+0  00000+0 0  9992
2 38867   0.0581 100.7777 0000540 184.6277 227.2487  1.00246649 34945
FM-6                    
1 39360U 13058A   22116.63400038 -.00000031  00000+0  00000+0 0  9997
2 39360   0.0338 276.6775 0000679 350.6001  59.4073  1.00269910 30890
INTELSAT 30 (IS-30)     
1 40271U 14062A   22117.07965983 -.00000164  00000+0  00000+0 0  9997
2 40271   0.0199 261.9146 0001469 191.9940  54.7514  1.00270371 27609
DIRECTV 14              
1 40333U 14078B   22117.25187956 -.00000138  00000+0  00000+0 0  9990
2 40333   0.0172 124.8478 0000113  91.5832 350.2535  1.00268618 27084
DIRECTV 15              
1 40663U 15026A   22116.96430083 -.00000116  00000+0  00000+0 0  9995
2 40663   0.0115 215.3967 0000746  96.4027 147.4067  1.00267436 25371
SKY MEXICO-1            
1 40664U 15026B   22117.07410574 -.00000249  00000+0  00000+0 0  9999
2 40664   0.0158 288.8953 0002368 111.3089 122.7403  1.00276642 25375
INTELSAT 34 (IS-34)     
1 40874U 15039A   22116.85952359 -.00000300  00000+0  00000+0 0  9991
2 40874   0.0226 303.9974 0000384 229.7898 294.9727  1.00270243 24465
INTELSAT 31 (IS-31)     
1 41581U 16035A   22116.53529576 -.00000165  00000+0  00000+0 0  9999
2 41581   0.0145 240.8893 0002141 336.5505  94.7158  1.00271607 21528
INTELSAT 36 (IS-36)     
1 41747U 16053A   22116.71136824 -.00000039  00000+0  00000+0 0  9993
2 41747   0.0138 312.7953 0001383  33.5618 192.9179  1.00270789 20787
INTELSAT 33E (IS-33E)   
1 41748U 16053B   22116.85327216  .00000035  00000+0  00000+0 0  9991
2 41748   0.0187 315.2621 0001559  87.8013 178.9097  1.00271909 21080
INTELSAT 32E (IS-32E)   
1 41945U 17007B   22117.11872086 -.00000283  00000+0  00000+0 0  9996
2 41945   0.0113 219.1922 0000204  54.4348 301.0139  1.00266994 19082
INTELSAT 35E (IS-35E)   
1 42818U 17041A   22116.88938104 -.00000252  00000+0  00000+0 0  9997
2 42818   0.0100 216.0617 0001595 193.6976  90.7865  1.00271666 17653
INTELSAT 37E (IS-37E)   
1 42950U 17059A   22117.14111713 -.00000155  00000+0  00000+0 0  9994
2 42950   0.0216 244.4102 0002438 156.0669 207.4165  1.00270374 16880
AZERSPACE 2 (IS-38)     
1 43632U 18074A   22117.17271906  .00000123  00000+0  00000+0 0  9998
2 43632   0.0139 219.1964 0001298 191.3341 271.8860  1.00270719 13280
HORIZONS-3E             
1 43633U 18074B   22116.37908642 -.00000046  00000+0  00000+0 0  9999
2 43633   0.0232 101.8686 0000820 245.5065 172.4435  1.00271691 13170
AT&T T-16               
1 44333U 19034A   22116.90674476 -.00000129  00000+0  00000+0 0  9990
2 44333   0.0189 263.9666 0000515 310.7855 225.6809  1.00269478 10465
INTELSAT 39 (IS-39)     
1 44476U 19049B   22116.85604904  .00000019  00000+0  00000+0 0  9994
2 44476   0.0210 260.4967 0000397 318.4643   5.9771  1.00270781  9983
GALAXY 30 (G-30)        
1 46114U 20056C   22117.22131420  .00000023  00000+0  00000+0 0  9990
2 46114   0.0142 204.4385 0001886 198.6608 126.7427  1.00272752  6249
